{
    "links": {
        "self": "http://www.neowsapp.com/rest/v1/neo/3726336?api_key=iIulBulltgU6a56xZRHN4H3l9WmuAYTsLGpBGhQ2"
    },
    "id": "3726336",
    "neo_reference_id": "3726336",
    "name": "(2015 OS79)",
    "designation": "2015 OS79",
    "nasa_jpl_url": "http://ssd.jpl.nasa.gov/sbdb.cgi?sstr=3726336",
    "absolute_magnitude_h": 25.6,
    "estimated_diameter": {
        "kilometers": {
            "estimated_diameter_min": 0.0201629919,
            "estimated_diameter_max": 0.0450858206
        },
        "meters": {
            "estimated_diameter_min": 20.1629919443,
            "estimated_diameter_max": 45.0858206172
        },
        "miles": {
            "estimated_diameter_min": 0.0125286985,
            "estimated_diameter_max": 0.0280150214
        },
        "feet": {
            "estimated_diameter_min": 66.1515504905,
            "estimated_diameter_max": 147.9193637137
        }
    },
    "is_potentially_hazardous_asteroid": false,
    "close_approach_data": [
        {
            "close_approach_date": "2015-07-10",
            "close_approach_date_full": "2015-Jul-10 17:47",
            "epoch_date_close_approach": 1436550420000,
            "relative_velocity": {
                "kilometers_per_second": "2.8280350866",
                "kilometers_per_hour": "10180.9263117311",
                "miles_per_hour": "6326.0316851976"
            },
            "miss_distance": {
                "astronomical": "0.0796895439",
                "lunar": "30.9992325771",
                "kilometers": "11921386.028711493",
                "miles": "7407605.7829968834"
            },
            "orbiting_body": "Earth"
        },
        {
            "close_approach_date": "2136-07-08",
            "close_approach_date_full": "2136-Jul-08 16:54",
            "epoch_date_close_approach": 5254822440000,
            "relative_velocity": {
                "kilometers_per_second": "3.5155892661",
                "kilometers_per_hour": "12656.1213578889",
                "miles_per_hour": "7864.0216292949"
            },
            "miss_distance": {
                "astronomical": "0.0993064756",
                "lunar": "38.6302190084",
                "kilometers": "14856037.226966972",
                "miles": "9231113.4804173336"
            },
            "orbiting_body": "Earth"
        }
    ],
    "orbital_data": {
        "orbit_id": "5",
        "orbit_determination_date": "2017-04-06 08:32:37",
        "first_observation_date": "2015-07-26",
        "last_observation_date": "2015-08-22",
        "data_arc_in_days": 27,
        "observations_used": 9,
        "orbit_uncertainty": "8",
        "minimum_orbit_intersection": ".0722837",
        "jupiter_tisserand_invariant": "4.661",
        "epoch_osculation": "2457230.5",
        "eccentricity": ".239470082966816",
        "semi_major_axis": "1.427879327992633",
        "inclination": "1.173550761232881",
        "ascending_node_longitude": "43.4834099025302",
        "orbital_period": "623.2118263878483",
        "perihelion_distance": "1.085944946851636",
        "perihelion_argument": "249.478522855586",
        "aphelion_distance": "1.76981370913363",
        "perihelion_time": "2457217.528195603547",
        "mean_anomaly": "7.493197954521575",
        "mean_motion": ".5776527093309015",
        "equinox": "J2000",
        "orbit_class": {
            "orbit_class_type": "AMO",
            "orbit_class_description": "Near-Earth asteroid orbits similar to that of 1221 Amor",
            "orbit_class_range": "1.017 AU < q (perihelion) < 1.3 AU"
        }
    },
    "is_sentry_object": false
}